STARLINK-30961          
1 58445U 23183J   26068.98515877 -.00000859  00000+0 -22357-4 0  9991
2 58445  43.0029  39.5902 0001737 271.5992  88.4660 15.26734072126780
KUIPER-00204            
1 67145U 25301N   26068.39760395  .00020516  00000+0  79568-3 0  9999
2 67145  51.8870  71.6415 0003071 354.8934   5.2016 15.26088400 13737
